NORAD_CAT_ID,OBJECT_NAME,OBJECT_TYPE,EPOCH,MEAN_MOTION,ECCENTRICITY,INCLINATION,RA_OF_ASC_NODE,ARG_OF_PERICENTER,MEAN_ANOMALY,BSTAR,MEAN_MOTION_DOT,MEAN_MOTION_DDOT,TLE_LINE0,TLE_LINE1,TLE_LINE2,SEMIMAJOR_AXIS,PERIOD,APOGEE,PERIGEE,DECAYED
53543.0,STARLINK-4297,PAYLOAD,2024-01-28 00:19:46,15.08843106,0.0001398,53.2174,288.375,92.6898,267.4254,-3.4635e-06,-3.43e-06,0.0,0 STARLINK-4297,1 53543U 22101S   24028.01373013 -.00000343  00000-0 -34635-5 0  9998,2 53543  53.2174 288.3750 0001398  92.6898 267.4254 15.08843106 79800,6917.871,95.437,540.703,538.769,0.0
53543.0,STARLINK-4297,PAYLOAD,2024-01-28 22:35:09,15.08849433,0.0001467,53.2181,284.2165,99.8965,260.2193,-0.00012504,-2.278e-05,0.0,0 STARLINK-4297,1 53543U 22101S   24028.94108689 -.00002278  00000-0 -12504-3 0  9993,2 53543  53.2181 284.2165 0001467  99.8965 260.2193 15.08849433 80639,6917.852,95.437,540.731,538.702,0.0
53543.0,STARLINK-4297,PAYLOAD,2024-01-30 22:16:43,15.08844051,0.000137,53.2165,275.2936,92.0557,268.0592,7.415e-05,8.92e-06,0.0,0 STARLINK-4297,1 53543U 22101S   24030.92828393  .00000892  00000-0  74150-4 0  9999,2 53543  53.2165 275.2936 0001370  92.0557 268.0592 15.08844051 80935,6917.868,95.437,540.681,538.785,0.0
53543.0,STARLINK-4297,PAYLOAD,2024-01-30 23:52:06,15.08845055,0.0001396,53.2171,274.9983,93.1154,266.9997,8.65e-05,1.089e-05,0.0,0 STARLINK-4297,1 53543U 22101S   24030.99452316  .00001089  00000-0  86500-4 0  9995,2 53543  53.2171 274.9983 0001396  93.1154 266.9997 15.08845055 80259,6917.865,95.437,540.696,538.764,0.0
53543.0,STARLINK-4297,PAYLOAD,2024-01-31 15:45:58,15.08834835,0.0001419,53.2173,272.0279,102.0861,258.029,-5.7284e-05,-1.199e-05,0.0,0 STARLINK-4297,1 53543U 22101S   24031.65693107 -.00001199  00000-0 -57284-4 0  9995,2 53543  53.2173 272.0279 0001419 102.0861 258.0290 15.08834835 80352,6917.896,95.438,540.743,538.78,0.0
53543.0,STARLINK-4297,PAYLOAD,2024-02-02 18:38:18,15.08843107,0.0001473,53.2177,262.5125,100.6241,259.4918,6.8371e-05,8e-06,0.0,0 STARLINK-4297,1 53543U 22101S   24033.77660732  .00000800  00000-0  68371-4 0  9993,2 53543  53.2177 262.5125 0001473 100.6241 259.4918 15.08843107 80675,6917.871,95.437,540.755,538.717,0.0
53543.0,STARLINK-4297,PAYLOAD,2024-02-02 21:49:04,15.08845112,0.0001421,53.2166,261.9135,101.4158,258.6994,9.7415e-05,1.263e-05,0.0,0 STARLINK-4297,1 53543U 22101S   24033.90908517  .00001263  00000-0  97415-4 0  9999,2 53543  53.2166 261.9135 0001421 101.4158 258.6994 15.08845112 81388,6917.865,95.437,540.713,538.747,0.0
53543.0,STARLINK-4297,PAYLOAD,2024-02-03 00:59:51,15.08846161,0.0001349,53.2161,261.3179,97.4943,262.6203,0.00010503,1.384e-05,0.0,0 STARLINK-4297,1 53543U 22101S   24034.04156412  .00001384  00000-0  10503-3 0  9990,2 53543  53.2161 261.3179 0001349  97.4943 262.6203 15.08846161 81406,6917.862,95.437,540.66,538.793,0.0
53543.0,STARLINK-4297,PAYLOAD,2024-02-03 20:04:29,15.08838268,0.0001446,53.2164,257.7478,103.3729,256.7425,-3.1634e-05,-7.91e-06,0.0,0 STARLINK-4297,1 53543U 22101S   24034.83645428 -.00000791  00000-0 -31634-4 0  9999,2 53543  53.2164 257.7478 0001446 103.3729 256.7425 15.08838268 80832,6917.886,95.438,540.751,538.75,0.0
53543.0,STARLINK-4297,PAYLOAD,2024-02-04 13:33:43,15.08843379,0.0001423,53.2164,254.477,105.5644,254.5505,1.2402e-05,-9.1e-07,0.0,0 STARLINK-4297,1 53543U 22101S   24035.56508910 -.00000091  00000-0  12402-4 0  9998,2 53543  53.2164 254.4770 0001423 105.5644 254.5505 15.08843379 81639,6917.87,95.437,540.719,538.751,0.0
53543.0,STARLINK-4297,PAYLOAD,2024-02-04 19:55:15,15.0884421,0.0001636,53.2173,253.2913,117.9009,242.2149,4.1225e-05,3.68e-06,0.0,0 STARLINK-4297,1 53543U 22101S   24035.83004601  .00000368  00000-0  41225-4 0  9997,2 53543  53.2173 253.2913 0001636 117.9009 242.2149 15.08844210 80983,6917.868,95.437,540.864,538.601,0.0
53543.0,STARLINK-4297,PAYLOAD,2024-02-05 07:02:57,15.08848365,0.000116,53.2157,251.2092,95.0876,265.0249,-9.2959e-06,-4.36e-06,0.0,0 STARLINK-4297,1 53543U 22101S   24036.29372432 -.00000436  00000-0 -92959-5 0  9997,2 53543  53.2157 251.2092 0001160  95.0876 265.0249 15.08848365 81745,6917.855,95.437,540.522,538.917,0.0
53543.0,STARLINK-4297,PAYLOAD,2024-02-05 19:46:03,15.0883423,0.0001452,53.2177,248.8325,103.4916,256.6238,-5.6202e-06,-3.77e-06,0.0,0 STARLINK-4297,1 53543U 22101S   24036.82365579 -.00000377  00000-0 -56202-5 0  9995,2 53543  53.2177 248.8325 0001452 103.4916 256.6238 15.08834230 81134,6917.898,95.438,540.768,538.759,0.0
53543.0,STARLINK-4297,PAYLOAD,2024-02-05 21:21:27,15.08830381,0.0001272,53.2176,248.5359,99.9501,260.1635,5.1062e-05,5.25e-06,0.0,0 STARLINK-4297,1 53543U 22101S   24036.88989630  .00000525  00000-0  51062-4 0  9992,2 53543  53.2176 248.5359 0001272  99.9501 260.1635 15.08830381 81837,6917.91,95.438,540.655,538.895,0.0
53543.0,STARLINK-4297,PAYLOAD,2024-02-06 13:15:18,15.08836687,0.0001266,53.2165,245.5592,101.7126,258.4008,1.7498e-05,-9e-08,0.0,0 STARLINK-4297,1 53543U 22101S   24037.55229510 -.00000009  00000-0  17498-4 0  9994,2 53543  53.2165 245.5592 0001266 101.7126 258.4008 15.08836687 81939,6917.891,95.438,540.631,538.88,0.0
53543.0,STARLINK-4297,PAYLOAD,2024-02-06 21:12:13,15.0883992,0.0001488,53.2173,244.0736,98.0772,262.0389,3.4941e-05,2.68e-06,0.0,0 STARLINK-4297,1 53543U 22101S   24037.88349391  .00000268  00000-0  34941-4 0  9998,2 53543  53.2173 244.0736 0001488  98.0772 262.0389 15.08839920 81984,6917.881,95.438,540.775,538.716,0.0
53543.0,STARLINK-4297,PAYLOAD,2024-02-07 13:06:05,15.08836801,0.0001217,53.2162,241.0987,81.927,278.186,0.00011159,1.488e-05,0.0,0 STARLINK-4297,1 53543U 22101S   24038.54589412  .00001488  00000-0  11159-3 0  9992,2 53543  53.2162 241.0987 0001217  81.9270 278.1860 15.08836801 82080,6917.89,95.438,540.597,538.913,0.0
53543.0,STARLINK-4297,PAYLOAD,2024-02-07 21:03:00,15.08840766,0.000136,53.2163,239.6123,69.8447,290.2692,0.00011438,1.533e-05,0.0,0 STARLINK-4297,1 53543U 22101S   24038.87709327  .00001533  00000-0  11438-3 0  9998,2 53543  53.2163 239.6123 0001360  69.8447 290.2692 15.08840766 82135,6917.878,95.438,540.684,538.802,0.0
53543.0,STARLINK-4297,PAYLOAD,2024-02-08 06:35:19,15.08843242,0.0001225,53.2161,237.8279,80.3945,279.7185,0.00012199,1.654e-05,0.0,0 STARLINK-4297,1 53543U 22101S   24039.27453130  .00001654  00000-0  12199-3 0  9990,2 53543  53.2161 237.8279 0001225  80.3945 279.7185 15.08843242 81507,6917.87,95.437,540.583,538.888,0.0
53543.0,STARLINK-4297,PAYLOAD,2024-02-08 22:29:10,15.08849334,0.0001188,53.2157,234.8528,89.1027,271.0102,0.00011644,1.566e-05,0.0,0 STARLINK-4297,1 53543U 22101S   24039.93692578  .00001566  00000-0  11644-3 0  9990,2 53543  53.2157 234.8528 0001188  89.1027 271.0102 15.08849334 82291,6917.852,95.437,540.539,538.895,0.0
53543.0,STARLINK-4297,PAYLOAD,2024-02-09 12:47:39,15.08842482,0.0001052,53.2149,232.174,99.4457,260.6655,-7.8381e-06,-4.13e-06,0.0,0 STARLINK-4297,1 53543U 22101S   24040.53309254 -.00000413  00000-0 -78381-5 0  9999,2 53543  53.2149 232.1740 0001052  99.4457 260.6655 15.08842482 82384,6917.873,95.437,540.466,539.01,0.0
53543.0,STARLINK-4297,PAYLOAD,2024-02-09 19:09:11,15.08844141,0.0001127,53.2155,230.9856,94.9304,265.1817,1.2157e-05,-9.4e-07,0.0,0 STARLINK-4297,1 53543U 22101S   24040.79805029 -.00000094  00000-0  12157-4 0  9990,2 53543  53.2155 230.9856 0001127  94.9304 265.1817 15.08844141 81731,6917.868,95.437,540.512,538.953,0.0
53543.0,STARLINK-4297,PAYLOAD,2024-02-10 18:59:58,15.08842203,0.0001543,53.217,226.5242,109.605,250.5108,4.0289e-05,3.53e-06,0.0,0 STARLINK-4297,1 53543U 22101S   24041.79164924  .00000353  00000-0  40289-4 0  9997,2 53543  53.2170 226.5242 0001543 109.6050 250.5108 15.08842203 82573,6917.874,95.437,540.806,538.671,0.0
53543.0,STARLINK-4297,PAYLOAD,2024-02-11 12:29:13,15.08830248,0.0001522,53.2167,223.2563,100.2183,259.8981,-5.8167e-06,-3.81e-06,0.0,0 STARLINK-4297,1 53543U 22101S   24042.52030058 -.00000381  00000-0 -58167-5 0  9997,2 53543  53.2167 223.2563 0001522 100.2183 259.8981 15.08830248 81992,6917.91,95.438,540.828,538.722,0.0
53543.0,STARLINK-4297,PAYLOAD,2024-02-11 14:04:37,15.08829257,0.0001281,53.2151,222.9569,101.553,258.5606,-2.7619e-05,-7.27e-06,0.0,0 STARLINK-4297,1 53543U 22101S   24042.58654178 -.00000727  00000-0 -27619-4 0  9999,2 53543  53.2151 222.9569 0001281 101.5530 258.5606 15.08829257 82695,6917.913,95.438,540.664,538.892,0.0
53543.0,STARLINK-4297,PAYLOAD,2024-02-11 20:26:10,15.08827564,0.0001265,53.2157,221.767,101.5212,258.5923,-5.3444e-05,-1.138e-05,0.0,0 STARLINK-4297,1 53543U 22101S   24042.85150477 -.00001138  00000-0 -53444-4 0  9994,2 53543  53.2157 221.7670 0001265 101.5212 258.5923 15.08827564 82736,6917.918,95.438,540.659,538.908,0.0
53543.0,STARLINK-4297,PAYLOAD,2024-02-12 12:20:00,15.08838495,0.000121,53.2158,218.7936,99.1701,260.9428,5.8441e-05,6.42e-06,0.0,0 STARLINK-4297,1 53543U 22101S   24043.51389754  .00000642  00000-0  58441-4 0  9999,2 53543  53.2158 218.7936 0001210  99.1701 260.9428 15.08838495 82140,6917.885,95.438,540.587,538.913,0.0
53543.0,STARLINK-4297,PAYLOAD,2024-02-12 17:06:09,15.08843329,0.0001213,53.216,217.9014,98.3468,261.7662,9.8746e-05,1.284e-05,0.0,0 STARLINK-4297,1 53543U 22101S   24043.71261366  .00001284  00000-0  98746-4 0  9994,2 53543  53.2160 217.9014 0001213  98.3468 261.7662 15.08843329 82865,6917.87,95.437,540.574,538.896,0.0
53543.0,STARLINK-4297,PAYLOAD,2024-02-13 12:10:48,15.0883389,0.0001174,53.2161,214.3333,95.5671,264.5455,0.00013703,1.893e-05,0.0,0 STARLINK-4297,1 53543U 22101S   24044.50750012  .00001893  00000-0  13703-3 0  9998,2 53543  53.2161 214.3333 0001174  95.5671 264.5455 15.08833890 82988,6917.899,95.438,540.576,538.952,0.0
53543.0,STARLINK-4297,PAYLOAD,2024-02-13 16:56:57,15.08834641,0.0001167,53.2161,213.4414,94.8215,265.291,0.00013977,1.937e-05,0.0,0 STARLINK-4297,1 53543U 22101S   24044.70622132  .00001937  00000-0  13977-3 0  9993,2 53543  53.2161 213.4414 0001167  94.8215 265.2910 15.08834641 82323,6917.897,95.438,540.569,538.954,0.0
